{"type": "FeatureCollection", "features": [ {"type": "Feature", "properties": {"norad_id": 66722, "name": "FLOCK 4H-19", "group": "last-30-days", "lat": 15.141207434097959, "lon": -112.370768373836, "alt_km": 510.55418549156457, "timestamp": "2025-12-19T22:41:51.096271+00:00", "meta": {"OBJECT_NAME": "FLOCK 4H-19", "OBJECT_ID": "2025-276BJ", "EPOCH": "2025-12-19T18:00:00.998784", "MEAN_MOTION": 15.18222244, "ECCENTRICITY": 0.000233, "INCLINATION": 97.4401, "RA_OF_ASC_NODE": 65.4103, "ARG_OF_PERICENTER": 162.7696, "MEAN_ANOMALY": 12.8053, "EPHEMERIS_TYPE": 0, "CLASSIFICATION_TYPE": "U", "NORAD_CAT_ID": 66722, "ELEMENT_SET_NO": 999, "REV_AT_EPOCH": 433, "BSTAR": -0.0011732, "MEAN_MOTION_DOT": -0.00023976, "MEAN_MOTION_DDOT": 0}, "tle": {"line1": "1 66722U 25276BJ  25353.75001156 -.00023976  00000+0 -11732-2 0  9992", "line2": "2 66722  97.4401  65.4103 0002330 162.7696  12.8053 15.18222244  4334"}}, "geometry": {"type": "Point", "coordinates": [-112.370768373836, 15.141207434097959]}}, {"type": "Feature", "properties": {"norad_id": 66723, "name": "FLOCK 4H-20", "group": "last-30-days", "lat": 12.485524239366159, "lon": -112.72456564254728, "alt_km": 510.5320377482967, "timestamp": "2025-12-19T22:41:51.096282+00:00", "meta": {"OBJECT_NAME": "FLOCK 4H-20", "OBJECT_ID": "2025-276BK", "EPOCH": "2025-12-19T18:00:00.998784", "MEAN_MOTION": 15.18278742, "ECCENTRICITY": 0.0002751, "INCLINATION": 97.4436, "RA_OF_ASC_NODE": 65.4239, "ARG_OF_PERICENTER": 179.308, "MEAN_ANOMALY": 358.9119, "EPHEMERIS_TYPE": 0, "CLASSIFICATION_TYPE": "U", "NORAD_CAT_ID": 66723, "ELEMENT_SET_NO": 999, "REV_AT_EPOCH": 130, "BSTAR": -0.0011105, "MEAN_MOTION_DOT": -0.00022739, "MEAN_MOTION_DDOT": 0}, "tle": {"line1": "1 66723U 25276BK  25353.75001156 -.00022739  00000+0 -11105-2 0  9993", "line2": "2 66723  97.4436  65.4239 0002751 179.3080 358.9119 15.18278742  1306"}}, "geometry": {"type": "Point", "coordinates": [-112.72456564254728, 12.485524239366159]}}, {"type": "Feature", "properties": {"norad_id": 66724, "name": "FLOCK 4H-21", "group": "last-30-days", "lat": 10.167361168741005, "lon": -113.05203309148122, "alt_km": 510.90092455353533, "timestamp": "2025-12-19T22:41:51.096294+00:00", "meta": {"OBJECT_NAME": "FLOCK 4H-21", "OBJECT_ID": "2025-276BL", "EPOCH": "2025-12-19T18:00:00.998784", "MEAN_MOTION": 15.18339684, "ECCENTRICITY": 0.0002409, "INCLINATION": 97.4403, "RA_OF_ASC_NODE": 65.4125, "ARG_OF_PERICENTER": 176.3307, "MEAN_ANOMALY": 4.1802, "EPHEMERIS_TYPE": 0, "CLASSIFICATION_TYPE": "U", "NORAD_CAT_ID": 66724, "ELEMENT_SET_NO": 999, "REV_AT_EPOCH": 261, "BSTAR": -0.0010515, "MEAN_MOTION_DOT": -0.00021576, "MEAN_MOTION_DDOT": 0}, "tle": {"line1": "1 66724U 25276BL  25353.75001156 -.00021576  00000+0 -10515-2 0  9996", "line2": "2 66724  97.4403  65.4125 0002409 176.3307   4.1802 15.18339684  2611"}}, "geometry": {"type": "Point", "coordinates": [-113.05203309148122, 10.167361168741005]}}, {"type": "Feature", "properties": {"norad_id": 66725, "name": "FLOCK 4H-22", "group": "last-30-days", "lat": 72.62833106780377, "lon": -89.73911490856469, "alt_km": 507.3730085995903, "timestamp": "2025-12-19T22:41:51.096305+00:00", "meta": {"OBJECT_NAME": "FLOCK 4H-22", "OBJECT_ID": "2025-276BM", "EPOCH": "2025-12-19T18:00:00.998784", "MEAN_MOTION": 15.17477863, "ECCENTRICITY": 0.0001387, "INCLINATION": 97.4392, "RA_OF_ASC_NODE": 65.3809, "ARG_OF_PERICENTER": 314.5752, "MEAN_ANOMALY": 162.6159, "EPHEMERIS_TYPE": 0, "CLASSIFICATION_TYPE": "U", "NORAD_CAT_ID": 66725, "ELEMENT_SET_NO": 999, "REV_AT_EPOCH": 145, "BSTAR": -0.0010781, "MEAN_MOTION_DOT": -0.0002158, "MEAN_MOTION_DDOT": 0}, "tle": {"line1": "1 66725U 25276BM  25353.75001156 -.00021580  00000+0 -10781-2 0  9997", "line2": "2 66725  97.4392  65.3809 0001387 314.5752 162.6159 15.17477863  1458"}}, "geometry": {"type": "Point", "coordinates": [-89.73911490856469, 72.62833106780377]}}, {"type": "Feature", "properties": {"norad_id": 66726, "name": "FLOCK 4H-23", "group": "last-30-days", "lat": 82.47379751913998, "lon": -16.25608952419616, "alt_km": 508.96154574675165, "timestamp": "2025-12-19T22:41:51.096315+00:00", "meta": {"OBJECT_NAME": "FLOCK 4H-23", "OBJECT_ID": "2025-276BN", "EPOCH": "2025-12-19T18:00:00.998784", "MEAN_MOTION": 15.17215717, "ECCENTRICITY": 0.0003211, "INCLINATION": 97.4458, "RA_OF_ASC_NODE": 65.3948, "ARG_OF_PERICENTER": 255.2332, "MEAN_ANOMALY": 205.3857, "EPHEMERIS_TYPE": 0, "CLASSIFICATION_TYPE": "U", "NORAD_CAT_ID": 66726, "ELEMENT_SET_NO": 999, "REV_AT_EPOCH": 261, "BSTAR": -0.0010743, "MEAN_MOTION_DOT": -0.00021347, "MEAN_MOTION_DDOT": 0}, "tle": {"line1": "1 66726U 25276BN  25353.75001156 -.00021347  00000+0 -10743-2 0  9997", "line2": "2 66726  97.4458  65.3948 0003211 255.2332 205.3857 15.17215717  2616"}}, "geometry": {"type": "Point", "coordinates": [-16.25608952419616, 82.47379751913998]}}, {"type": "Feature", "properties": {"norad_id": 66727, "name": "FLOCK 4H-24", "group": "last-30-days", "lat": 79.79421753602523, "lon": -67.81927264647634, "alt_km": 508.37955306592085, "timestamp": "2025-12-19T22:41:51.096325+00:00", "meta": {"OBJECT_NAME": "FLOCK 4H-24", "OBJECT_ID": "2025-276BP", "EPOCH": "2025-12-19T18:00:00.998784", "MEAN_MOTION": 15.17318815, "ECCENTRICITY": 0.0002579, "INCLINATION": 97.4457, "RA_OF_ASC_NODE": 65.4012, "ARG_OF_PERICENTER": 275.5918, "MEAN_ANOMALY": 192.9899, "EPHEMERIS_TYPE": 0, "CLASSIFICATION_TYPE": "U", "NORAD_CAT_ID": 66727, "ELEMENT_SET_NO": 999, "REV_AT_EPOCH": 261, "BSTAR": -0.0010003, "MEAN_MOTION_DOT": -0.00019943, "MEAN_MOTION_DDOT": 0}, "tle": {"line1": "1 66727U 25276BP  25353.75001156 -.00019943  00000+0 -10003-2 0  9996", "line2": "2 66727  97.4457  65.4012 0002579 275.5918 192.9899 15.17318815  2610"}}, "geometry": {"type": "Point", "coordinates": [-67.81927264647634, 79.79421753602523]}}, {"type": "Feature", "properties": {"norad_id": 66728, "name": "FLOCK 4H-25", "group": "last-30-days", "lat": 15.075721100052128, "lon": -112.3751620363415, "alt_km": 511.38846213930174, "timestamp": "2025-12-19T22:41:51.096334+00:00", "meta": {"OBJECT_NAME": "FLOCK 4H-25", "OBJECT_ID": "2025-276BQ", "EPOCH": "2025-12-19T18:00:00.998784", "MEAN_MOTION": 15.18200294, "ECCENTRICITY": 0.0001695, "INCLINATION": 97.4411, "RA_OF_ASC_NODE": 65.4148, "ARG_OF_PERICENTER": 121.7042, "MEAN_ANOMALY": 53.9398, "EPHEMERIS_TYPE": 0, "CLASSIFICATION_TYPE": "U", "NORAD_CAT_ID": 66728, "ELEMENT_SET_NO": 999, "REV_AT_EPOCH": 130, "BSTAR": -0.0011319, "MEAN_MOTION_DOT": -0.00023122, "MEAN_MOTION_DDOT": 0}, "tle": {"line1": "1 66728U 25276BQ  25353.75001156 -.00023122  00000+0 -11319-2 0  9992", "line2": "2 66728  97.4411  65.4148 0001695 121.7042  53.9398 15.18200294  1306"}}, "geometry": {"type": "Point", "coordinates": [-112.3751620363415, 15.075721100052128]}}, {"type": "Feature", "properties": {"norad_id": 66729, "name": "FLOCK 4H-26", "group": "last-30-days", "lat": 78.75790272329334, "lon": 24.459830442654592, "alt_km": 509.4886957037297, "timestamp": "2025-12-19T22:41:51.096344+00:00", "meta": {"OBJECT_NAME": "FLOCK 4H-26", "OBJECT_ID": "2025-276BR", "EPOCH": "2025-12-19T18:00:00.998784", "MEAN_MOTION": 15.17142905, "ECCENTRICITY": 0.0003413, "INCLINATION": 97.4409, "RA_OF_ASC_NODE": 65.3785, "ARG_OF_PERICENTER": 273.7061, "MEAN_ANOMALY": 179.5795, "EPHEMERIS_TYPE": 0, "CLASSIFICATION_TYPE": "U", "NORAD_CAT_ID": 66729, "ELEMENT_SET_NO": 999, "REV_AT_EPOCH": 130, "BSTAR": -0.0010287, "MEAN_MOTION_DOT": -0.00020405, "MEAN_MOTION_DDOT": 0}, "tle": {"line1": "1 66729U 25276BR  25353.75001156 -.00020405  00000+0 -10287-2 0  9997", "line2": "2 66729  97.4409  65.3785 0003413 273.7061 179.5795 15.17142905  1308"}}, "geometry": {"type": "Point", "coordinates": [24.459830442654592, 78.75790272329334]}}, {"type": "Feature", "properties": {"norad_id": 66730, "name": "FLOCK 4H-27", "group": "last-30-days", "lat": 25.255582993709353, "lon": -110.87000629229311, "alt_km": 510.2350541288479, "timestamp": "2025-12-19T22:41:51.096358+00:00", "meta": {"OBJECT_NAME": "FLOCK 4H-27", "OBJECT_ID": "2025-276BS", "EPOCH": "2025-12-19T18:00:00.998784", "MEAN_MOTION": 15.18068548, "ECCENTRICITY": 0.0001248, "INCLINATION": 97.4388, "RA_OF_ASC_NODE": 65.4038, "ARG_OF_PERICENTER": 131.1924, "MEAN_ANOMALY": 34.2829, "EPHEMERIS_TYPE": 0, "CLASSIFICATION_TYPE": "U", "NORAD_CAT_ID": 66730, "ELEMENT_SET_NO": 999, "REV_AT_EPOCH": 130, "BSTAR": -0.0011403, "MEAN_MOTION_DOT": -0.00023203, "MEAN_MOTION_DDOT": 0}, "tle": {"line1": "1 66730U 25276BS  25353.75001156 -.00023203  00000+0 -11403-2 0  9999", "line2": "2 66730  97.4388  65.4038 0001248 131.1924  34.2829 15.18068548  1303"}}, "geometry": {"type": "Point", "coordinates": [-110.87000629229311, 25.255582993709353]}}, {"type": "Feature", "properties": {"norad_id": 66731, "name": "FLOCK 4H-28", "group": "last-30-days", "lat": 80.0666765102915, "lon": 17.30911696254077, "alt_km": 509.18804610456027, "timestamp": "2025-12-19T22:41:51.096368+00:00", "meta": {"OBJECT_NAME": "FLOCK 4H-28", "OBJECT_ID": "2025-276BT", "EPOCH": "2025-12-19T18:00:00.998784", "MEAN_MOTION": 15.17128275, "ECCENTRICITY": 0.0003006, "INCLINATION": 97.4398, "RA_OF_ASC_NODE": 65.3766, "ARG_OF_PERICENTER": 276.9785, "MEAN_ANOMALY": 178.1657, "EPHEMERIS_TYPE": 0, "CLASSIFICATION_TYPE": "U", "NORAD_CAT_ID": 66731, "ELEMENT_SET_NO": 999, "REV_AT_EPOCH": 261, "BSTAR": -0.00096933, "MEAN_MOTION_DOT": -0.00019225, "MEAN_MOTION_DDOT": 0}, "tle": {"line1": "1 66731U 25276BT  25353.75001156 -.00019225  00000+0 -96933-3 0  9991", "line2": "2 66731  97.4398  65.3766 0003006 276.9785 178.1657 15.17128275  2614"}}, "geometry": {"type": "Point", "coordinates": [17.30911696254077, 80.0666765102915]}}]}